NORAD_CAT_ID,OBJECT_NAME,OBJECT_TYPE,EPOCH,MEAN_MOTION,ECCENTRICITY,INCLINATION,RA_OF_ASC_NODE,ARG_OF_PERICENTER,MEAN_ANOMALY,BSTAR,MEAN_MOTION_DOT,MEAN_MOTION_DDOT,TLE_LINE0,TLE_LINE1,TLE_LINE2,SEMIMAJOR_AXIS,PERIOD,APOGEE,PERIGEE,DECAYED
52700.0,STARLINK-4034,PAYLOAD,2023-04-06 11:11:55,15.08838789,0.0001141,53.2153,264.5625,90.0957,270.0166,4.3183e-05,3.99e-06,0.0,0 STARLINK-4034,1 52700U 22053AW  23096.46661048  .00000399  00000-0  43183-4 0  9995,2 52700  53.2153 264.5625 0001141  90.0957 270.0166 15.08838789 49419,6917.884,95.438,540.538,538.96,0.0
52700.0,STARLINK-4034,PAYLOAD,2023-04-06 20:44:13,15.08842832,0.00012,53.2145,262.7773,96.3523,263.7606,0.00011909,1.608e-05,0.0,0 STARLINK-4034,1 52700U 22053AW  23096.86404815  .00001608  00000-0  11909-3 0  9990,2 52700  53.2145 262.7773 0001200  96.3523 263.7606 15.08842832 49881,6917.872,95.437,540.567,538.907,0.0
52700.0,STARLINK-4034,PAYLOAD,2023-04-07 11:02:42,15.08838783,0.0001222,53.2139,260.1012,92.4708,267.6424,0.00010364,1.362e-05,0.0,0 STARLINK-4034,1 52700U 22053AW  23097.46021067  .00001362  00000-0  10364-3 0  9992,2 52700  53.2139 260.1012 0001222  92.4708 267.6424 15.08838783 49979,6917.884,95.438,540.594,538.904,0.0
52700.0,STARLINK-4034,PAYLOAD,2023-04-07 17:24:14,15.08842005,0.0001095,53.2137,258.9136,64.4852,295.6253,0.00011254,1.504e-05,0.0,0 STARLINK-4034,1 52700U 22053AW  23097.72516817  .00001504  00000-0  11254-3 0  9990,2 52700  53.2137 258.9136 0001095  64.4852 295.6253 15.08842005 49609,6917.874,95.437,540.497,538.982,0.0
52700.0,STARLINK-4034,PAYLOAD,2023-04-08 10:53:29,15.08835887,0.0001253,53.213,255.642,80.065,280.0483,4.9299e-05,4.97e-06,0.0,0 STARLINK-4034,1 52700U 22053AW  23098.45381439  .00000497  00000-0  49299-4 0  9992,2 52700  53.2130 255.6420 0001253  80.0650 280.0483 15.08835887 49713,6917.893,95.438,540.625,538.891,0.0
52700.0,STARLINK-4034,PAYLOAD,2023-04-09 09:08:53,15.08833406,0.0001078,53.216,251.4786,83.2227,276.8888,4.7009e-05,4.6e-06,0.0,0 STARLINK-4034,1 52700U 22053AW  23099.38117822  .00000460  00000-0  47009-4 0  9995,2 52700  53.2160 251.4786 0001078  83.2227 276.8888 15.08833406 50264,6917.901,95.438,540.511,539.02,0.0
52700.0,STARLINK-4034,PAYLOAD,2023-04-09 17:05:49,15.08840103,9.73e-05,53.2168,249.9921,78.563,281.5472,3.1977e-05,2.21e-06,0.0,0 STARLINK-4034,1 52700U 22053AW  23099.71237472  .00000221  00000-0  31977-4 0  9998,2 52700  53.2168 249.9921 0000973  78.5630 281.5472 15.08840103 49906,6917.88,95.438,540.418,539.072,0.0
52700.0,STARLINK-4034,PAYLOAD,2023-04-10 10:35:03,15.08840205,0.0001074,53.2162,246.7205,94.6753,265.4361,0.00011832,1.596e-05,0.0,0 STARLINK-4034,1 52700U 22053AW  23100.44101477  .00001596  00000-0  11832-3 0  9999,2 52700  53.2162 246.7205 0001074  94.6753 265.4361 15.08840205 50428,6917.88,95.438,540.488,539.002,0.0
52700.0,STARLINK-4034,PAYLOAD,2023-04-10 18:31:58,15.08848621,0.0001035,53.2161,245.234,92.5426,267.5685,0.00019864,2.876e-05,0.0,0 STARLINK-4034,1 52700U 22053AW  23100.77220697  .00002876  00000-0  19864-3 0  9996,2 52700  53.2161 245.2340 0001035  92.5426 267.5685 15.08848621 50479,6917.854,95.437,540.435,539.003,0.0
52700.0,STARLINK-4034,PAYLOAD,2023-04-11 08:50:27,15.08841539,0.0001342,53.2158,242.5568,86.0044,274.1101,8.0338e-05,9.91e-06,0.0,0 STARLINK-4034,1 52700U 22053AW  23101.36837175  .00000991  00000-0  80338-4 0  9998,2 52700  53.2158 242.5568 0001342  86.0044 274.1101 15.08841539 50155,6917.876,95.437,540.669,538.812,0.0
52700.0,STARLINK-4034,PAYLOAD,2023-04-12 15:02:46,15.08842891,0.0001518,53.216,236.9069,83.4407,276.6757,4.2596e-05,3.9e-06,0.0,0 STARLINK-4034,1 52700U 22053AW  23102.62693036  .00000390  00000-0  42596-4 0  9991,2 52700  53.2160 236.9069 0001518  83.4407 276.6757 15.08842891 50347,6917.872,95.437,540.787,538.686,0.0
52700.0,STARLINK-4034,PAYLOAD,2023-04-13 08:32:02,15.08830635,0.0001203,53.2167,233.6359,75.673,284.4395,1.6311e-06,-2.62e-06,0.0,0 STARLINK-4034,1 52700U 22053AW  23103.35558180 -.00000262  00000-0  16311-5 0  9998,2 52700  53.2167 233.6359 0001203  75.6730 284.4395 15.08830635 50868,6917.909,95.438,540.606,538.942,0.0
52700.0,STARLINK-4034,PAYLOAD,2023-04-13 18:04:20,15.08845548,0.000149,53.2163,231.8516,76.7421,283.3738,0.00011931,1.612e-05,0.0,0 STARLINK-4034,1 52700U 22053AW  23103.75301004  .00001612  00000-0  11931-3 0  9993,2 52700  53.2163 231.8516 0001490  76.7421 283.3738 15.08845548 50516,6917.863,95.437,540.759,538.698,0.0
52700.0,STARLINK-4034,PAYLOAD,2023-04-14 11:33:35,15.08841574,0.0001312,53.2141,228.582,58.3605,301.7515,-2.7487e-05,-7.25e-06,0.0,0 STARLINK-4034,1 52700U 22053AW  23104.48165707 -.00000725  00000-0 -27487-4 0  9992,2 52700  53.2141 228.5820 0001312  58.3605 301.7515 15.08841574 51037,6917.876,95.437,540.648,538.833,0.0
52700.0,STARLINK-4034,PAYLOAD,2023-04-14 19:30:29,15.08842183,0.0002132,53.211,227.0928,92.1102,268.0134,0.00028295,4.218e-05,0.0,0 STARLINK-4034,1 52700U 22053AW  23104.81284698  .00004218  00000-0  28295-3 0  9996,2 52700  53.2110 227.0928 0002132  92.1102 268.0134 15.08842183 50673,6917.874,95.437,541.214,538.264,0.0
52700.0,STARLINK-4034,PAYLOAD,2023-04-15 12:59:13,15.09206839,0.0001604,53.2156,223.8203,109.587,250.5296,0.0029857,0.00048036,0.0,0 STARLINK-4034,1 52700U 22053AW  23105.54112970  .00048036  00000-0  29857-2 0  9990,2 52700  53.2156 223.8203 0001604 109.5870 250.5296 15.09206839 50781,6916.759,95.414,539.734,537.515,0.0
52700.0,STARLINK-4034,PAYLOAD,2023-04-15 20:55:48,15.09405068,0.000167,53.2151,222.3322,48.9012,311.2124,0.0043026,0.00069945,0.0,0 STARLINK-4034,1 52700U 22053AW  23105.87208845  .00069945  00000-0  43026-2 0  9999,2 52700  53.2151 222.3322 0001670  48.9012 311.2124 15.09405068 51241,6916.154,95.402,539.174,536.864,0.0
52700.0,STARLINK-4034,PAYLOAD,2023-04-16 08:03:00,15.09617734,0.0001538,53.2162,220.2496,55.9883,304.1255,0.0056317,0.00092472,0.0,0 STARLINK-4034,1 52700U 22053AW  23106.33541798  .00092472  00000-0  56317-2 0  9996,2 52700  53.2162 220.2496 0001538  55.9883 304.1255 15.09617734 51318,6915.504,95.388,538.433,536.306,0.0
52700.0,STARLINK-4034,PAYLOAD,2023-04-16 17:34:44,15.0984946,0.0001265,53.2157,218.4614,96.6604,263.4533,0.006735,0.00111655,0.0,0 STARLINK-4034,1 52700U 22053AW  23106.73245885  .00111655  00000-0  67350-2 0  9992,2 52700  53.2157 218.4614 0001265  96.6604 263.4533 15.09849460 51378,6914.797,95.374,537.536,535.787,0.0
52700.0,STARLINK-4034,PAYLOAD,2023-04-17 06:00:00,15.10444442,0.0001271,53.2151,216.1331,106.9491,187.8892,0.0046566,0.00078014,0.0,0 STARLINK-4034,1 52700U 22053AW  23107.25001157  .00078014  00000-0  46566-2 0  9999,2 52700  53.2151 216.1331 0001271 106.9491 187.8892 15.10444442 51043,6912.981,95.336,535.724,533.967,0.0
52700.0,STARLINK-4034,PAYLOAD,2023-04-17 14:00:01,15.10499405,0.000125,53.2151,214.6348,100.2443,208.1318,-0.0040446,-0.00067041,0.0,0 STARLINK-4034,1 52700U 22053AW  23107.58334491 -.00067041  00000-0 -40446-2 0  9996,2 52700  53.2151 214.6348 0001250 100.2443 208.1318 15.10499405 51099,6912.813,95.333,535.542,533.814,0.0
52700.0,STARLINK-4034,PAYLOAD,2023-04-17 22:00:00,15.10457434,0.0001179,53.2149,213.1341,80.8737,241.064,0.00025596,3.969e-05,0.0,0 STARLINK-4034,1 52700U 22053AW  23107.91667824  .00003969  00000-0  25596-3 0  9999,2 52700  53.2149 213.1341 0001179  80.8737 241.0640 15.10457434  1301,6912.941,95.335,535.621,533.991,0.0
52700.0,STARLINK-4034,PAYLOAD,2023-04-18 14:00:01,15.10514808,0.0001265,53.215,210.1346,70.7649,278.2659,-0.0047979,-0.00079371,0.0,0 STARLINK-4034,1 52700U 22053AW  23108.58334491 -.00079371  00000-0 -47979-2 0  9994,2 52700  53.2150 210.1346 0001265  70.7649 278.2659 15.10514808  1302,6912.766,95.332,535.505,533.756,0.0
52700.0,STARLINK-4034,PAYLOAD,2023-04-18 18:00:00,15.10444091,0.0001151,53.2148,209.3846,81.9138,93.9235,0.0026533,0.00044114,0.0,0 STARLINK-4034,1 52700U 22053AW  23108.75001157  .00044114  00000-0  26533-2 0  9991,2 52700  53.2148 209.3846 0001151  81.9138  93.9235 15.10444091 51274,6912.982,95.336,535.642,534.051,0.0
52700.0,STARLINK-4034,PAYLOAD,2023-04-18 22:00:00,15.10470021,0.0001142,53.2147,208.6336,88.4145,274.1866,6.4044e-05,7.74e-06,0.0,0 STARLINK-4034,1 52700U 22053AW  23108.91667824  .00000774  00000-0  64044-4 0  9993,2 52700  53.2147 208.6336 0001142  88.4145 274.1866 15.10470021  1303,6912.903,95.335,535.557,533.978,0.0
52700.0,STARLINK-4034,PAYLOAD,2023-04-19 14:00:01,15.10529125,0.0001312,53.2146,205.6342,92.8075,296.9307,-0.0069058,-0.00113617,0.0,0 STARLINK-4034,1 52700U 22053AW  23109.58334491 -.00113617  00000-0 -69058-2 0  9999,2 52700  53.2146 205.6342 0001312  92.8075 296.9307 15.10529125  1308,6912.722,95.331,535.494,533.68,0.0
52700.0,STARLINK-4034,PAYLOAD,2023-04-19 22:00:00,15.10465621,0.0001307,53.2142,204.133,97.7345,305.5742,0.00025931,4.026e-05,0.0,0 STARLINK-4034,1 52700U 22053AW  23109.91667824  .00004026  00000-0  25931-3 0  9999,2 52700  53.2142 204.1330 0001307  97.7345 305.5742 15.10465621  1303,6912.916,95.335,535.684,533.877,0.0
52700.0,STARLINK-4034,PAYLOAD,2023-04-20 08:55:34,15.10466134,7.55e-05,53.2149,202.0843,115.4938,244.6133,-3.5317e-05,-8.8e-06,0.0,0 STARLINK-4034,1 52700U 22053AW  23110.37192358 -.00000880  00000-0 -35317-4 0  9992,2 52700  53.2149 202.0843 0000755 115.4938 244.6133 15.10466134 51928,6912.914,95.335,535.301,534.257,0.0
52700.0,STARLINK-4034,PAYLOAD,2023-04-20 15:16:41,15.10485577,0.0001383,53.2131,200.8924,85.0178,275.0972,0.00013136,1.895e-05,0.0,0 STARLINK-4034,1 52700U 22053AW  23110.63658667  .00001895  00000-0  13136-3 0  9990,2 52700  53.2131 200.8924 0001383  85.0178 275.0972 15.10485577 51966,6912.855,95.334,535.676,533.764,0.0
52700.0,STARLINK-4034,PAYLOAD,2023-04-21 11:55:21,15.10475846,0.0001815,53.2153,197.0229,79.7546,280.3651,2.2635e-06,-2.55e-06,0.0,0 STARLINK-4034,1 52700U 22053AW  23111.49678068 -.00000255  00000-0  22635-5 0  9998,2 52700  53.2153 197.0229 0001815  79.7546 280.3651 15.10475846 52090,6912.885,95.334,536.004,533.495,0.0
